OBJECT_NAME,OBJECT_ID,EPOCH,MEAN_MOTION,ECCENTRICITY,INCLINATION,RA_OF_ASC_NODE,ARG_OF_PERICENTER,MEAN_ANOMALY,EPHEMERIS_TYPE,CLASSIFICATION_TYPE,NORAD_CAT_ID,ELEMENT_SET_NO,REV_AT_EPOCH,BSTAR,MEAN_MOTION_DOT,MEAN_MOTION_DDOT
FENGYUN 3D,2017-072A,2026-07-16T06:04:52.660128,14.19745930,.00014858,99.0141,172.2038,12.0543,348.0668,0,U,43010,999,44911,.16025196E-3,.293E-5,0
NOAA 20 (JPSS-1),2017-073A,2026-07-16T06:04:30.444960,14.19516538,.00014283,98.7772,136.4583,123.5987,236.5325,0,U,43013,999,44859,.2128784E-4,.1E-7,0
GOES 17,2018-022A,2026-07-16T07:18:06.043104,1.00270955,.00005753,1.0098,85.2390,76.8342,152.0926,0,U,43226,999,3071,0,-.194E-5,0
SENTINEL-3B,2018-039A,2026-07-16T05:21:47.464128,14.26736511,.00011661,98.6236,264.3371,119.9543,240.1753,0,U,43437,999,42826,.36498009E-4,.45E-6,0
FENGYUN 2H,2018-050A,2026-07-16T03:46:38.668800,1.00267030,.00023173,3.1035,78.7266,134.3526,216.6914,0,U,43491,999,2972,0,-.139E-5,0
METOP-C,2018-087A,2026-07-15T13:47:48.761088,14.21519167,.0002216,98.6630,255.6574,93.2289,266.9142,0,U,43689,999,39886,.44045E-4,.53E-6,0
GEO-KOMPSAT-2A,2018-100A,2026-07-16T07:05:14.766720,1.00268278,.00019463,0.0333,172.0474,290.6637,65.9713,0,U,43823,999,2792,0,-.355E-5,0
METEOR-M2 2,2019-038A,2026-07-16T06:09:00.762048,14.24373060,.00006948,98.9155,184.9732,2.1659,357.9522,0,U,44387,999,36543,.49653538E-4,.69E-6,0
ARKTIKA-M 1,2021-016A,2026-07-14T09:46:38.558208,2.00611590,.7297332,63.2662,53.6722,270.0591,14.4994,0,U,47719,999,3933,0,-.301E-5,0
FENGYUN 3E,2021-062A,2026-07-16T07:18:29.994912,14.19906256,.00022445,98.7495,200.3887,36.8320,323.3010,0,U,49008,999,26071,.3628722E-5,-.36E-6,0
GOES 18,2022-021A,2026-07-16T06:15:38.690208,1.00271225,.00004223,0.0184,106.3570,70.7212,73.9192,0,U,51850,999,688,0,.86E-6,0
NOAA 21 (JPSS-2),2022-150A,2026-07-16T06:50:59.478432,14.19541144,.00028458,98.7059,135.5860,102.6542,257.4953,0,U,54234,999,19067,.26708281E-4,.13E-6,0
METEOSAT-12 (MTG-I1),2022-170C,2026-07-16T06:28:33.284352,1.00267987,.00038463,0.7264,19.9203,81.6821,289.3043,0,U,54743,999,1327,0,-.19E-6,0
TIANMU-1 03,2023-039A,2026-07-16T06:34:37.107840,15.48060905,.00024938,97.5239,12.4008,23.7292,336.4073,0,U,55973,999,18533,.15657752E-3,.8103E-4,0
TIANMU-1 04,2023-039B,2026-07-16T07:35:57.925824,15.48689089,.00029176,97.5180,11.6012,8.4789,351.6510,0,U,55974,999,18535,.16343466E-3,.8651E-4,0
TIANMU-1 05,2023-039C,2026-07-16T07:42:03.661344,15.47987306,.00028621,97.5225,12.0535,42.7704,317.3769,0,U,55975,999,18532,.16277311E-3,.8406E-4,0
TIANMU-1 06,2023-039D,2026-07-16T07:43:32.288736,15.48586107,.00029556,97.5232,12.7199,33.7195,326.4242,0,U,55976,999,18535,.16551781E-3,.8731E-4,0
FENGYUN 3G,2023-055A,2026-07-16T05:58:16.340736,15.53818200,.00070122,49.9908,196.1357,60.9247,299.2422,0,U,56232,999,18452,.20478089E-3,.12981E-3,0
METEOR-M2 3,2023-091A,2026-07-16T06:10:30.496224,14.24048983,.00051414,98.6068,251.6384,87.8941,272.2827,0,U,57166,999,15865,.11983534E-4,-.16E-6,0
TIANMU-1 07,2023-101A,2026-07-16T06:28:33.934080,15.30122102,.00036878,97.2575,247.2735,62.5982,297.5634,0,U,57399,999,16609,.11065897E-3,.3151E-4,0
TIANMU-1 08,2023-101B,2026-07-16T05:40:25.085280,15.30126128,.00045127,97.2564,247.0073,43.5853,316.5744,0,U,57400,999,16608,.11517502E-3,.3284E-4,0
TIANMU-1 09,2023-101C,2026-07-16T06:49:43.412736,15.30167221,.00042974,97.2521,246.4554,62.5483,297.6195,0,U,57401,999,16609,.10935717E-3,.3118E-4,0
TIANMU-1 10,2023-101D,2026-07-16T07:38:03.051168,15.30140977,.00055687,97.2602,247.5684,51.2666,308.9072,0,U,57402,999,16609,.11442914E-3,.3264E-4,0
FENGYUN 3F,2023-111A,2026-07-16T06:54:19.800288,14.19943519,.00012508,98.6824,266.7524,76.1256,284.0060,0,U,57490,999,15299,.28504145E-4,.17E-6,0
ARKTIKA-M 2,2023-198A,2026-07-15T04:12:00.091584,2.00608092,.69107365,63.2178,151.2342,267.3397,18.7345,0,U,58584,999,1888,0,.129E-5,0
TIANMU-1 11,2023-205A,2026-07-16T08:13:31.826208,15.27269685,.00068214,97.3440,218.4465,256.9670,103.0807,0,U,58645,999,14197,.98627392E-4,.2563E-4,0
TIANMU-1 12,2023-205B,2026-07-16T07:33:58.106304,15.27102005,.00058841,97.3429,218.1659,229.4862,130.5865,0,U,58646,999,14195,.11248538E-3,.2918E-4,0
TIANMU-1 13,2023-205C,2026-07-16T06:47:46.499712,15.27094059,.00059097,97.3457,218.4147,207.8966,152.1957,0,U,58647,999,14194,.1057188E-3,.2737E-4,0
TIANMU-1 14,2023-205D,2026-07-16T07:59:36.674304,15.27138107,.00065323,97.3393,217.6229,215.4217,144.6589,0,U,58648,999,14195,.10246424E-3,.2654E-4,0
TIANMU-1 19,2023-208A,2026-07-16T06:59:32.824896,15.31984968,.00046968,97.4531,313.7515,194.2900,165.8209,0,U,58660,999,14178,.13846991E-3,.4197E-4,0
