FENGYUN 3D              
1 43010U 17072A   26197.25338727  .00000293  00000+0  16025-3 0  9997
2 43010  99.0141 172.2038 0001485  12.0543 348.0668 14.19745930449117
NOAA 20 (JPSS-1)        
1 43013U 17073A   26197.25313015  .00000001  00000+0  21288-4 0  9999
2 43013  98.7772 136.4583 0001428 123.5987 236.5325 14.19516538448592
GOES 17                 
1 43226U 18022A   26197.30423661 -.00000194  00000+0  00000+0 0  9993
2 43226   1.0098  85.2390 0000575  76.8342 152.0926  1.00270955 30716
SENTINEL-3B             
1 43437U 18039A   26197.22346602  .00000045  00000+0  36498-4 0  9994
2 43437  98.6236 264.3371 0001166 119.9543 240.1753 14.26736511428269
FENGYUN 2H              
1 43491U 18050A   26197.15739200 -.00000139  00000+0  00000+0 0  9999
2 43491   3.1035  78.7266 0002317 134.3526 216.6914  1.00267030 29726
METOP-C                 
1 43689U 18087A   26196.57486992  .00000053  00000+0  44045-4 0  9996
2 43689  98.6630 255.6574 0002216  93.2289 266.9142 14.21519167398863
GEO-KOMPSAT-2A          
1 43823U 18100A   26197.29530980 -.00000355  00000+0  00000+0 0  9993
2 43823   0.0333 172.0474 0001946 290.6637  65.9713  1.00268278 27924
METEOR-M2 2             
1 44387U 19038A   26197.25625882  .00000069  00000+0  49654-4 0  9996
2 44387  98.9155 184.9732 0000694   2.1659 357.9522 14.24373060365435
ARKTIKA-M 1             
1 47719U 21016A   26195.40739072 -.00000301  00000+0  00000+0 0  9996
2 47719  63.2662  53.6722 7297332 270.0591  14.4994  2.00611590 39330
FENGYUN 3E              
1 49008U 21062A   26197.30451383 -.00000036  00000+0  36287-5 0  9994
2 49008  98.7495 200.3887 0002244  36.8320 323.3010 14.19906256260718
GOES 18                 
1 51850U 22021A   26197.26086447  .00000086  00000+0  00000+0 0  9990
2 51850   0.0184 106.3570 0000422  70.7212  73.9192  1.00271225  6886
NOAA 21 (JPSS-2)        
1 54234U 22150A   26197.28541063  .00000013  00000+0  26708-4 0  9992
2 54234  98.7059 135.5860 0002845 102.6542 257.4953 14.19541144190677
METEOSAT-12 (MTG-I1)    
1 54743U 22170C   26197.26982968 -.00000019  00000+0  00000+0 0  9999
2 54743   0.7264  19.9203 0003846  81.6821 289.3043  1.00267987 13277
TIANMU-1 03             
1 55973U 23039A   26197.27404060  .00008103  00000+0  15658-3 0  9993
2 55973  97.5239  12.4008 0002493  23.7292 336.4073 15.48060905185338
TIANMU-1 04             
1 55974U 23039B   26197.31664266  .00008651  00000+0  16343-3 0  9995
2 55974  97.5180  11.6012 0002917   8.4789 351.6510 15.48689089185359
TIANMU-1 05             
1 55975U 23039C   26197.32087571  .00008406  00000+0  16277-3 0  9999
2 55975  97.5225  12.0535 0002862  42.7704 317.3769 15.47987306185326
TIANMU-1 06             
1 55976U 23039D   26197.32190149  .00008731  00000+0  16552-3 0  9993
2 55976  97.5232  12.7199 0002955  33.7195 326.4242 15.48586107185350
FENGYUN 3G              
1 56232U 23055A   26197.24880024  .00012981  00000+0  20478-3 0  9990
2 56232  49.9908 196.1357 0007012  60.9247 299.2422 15.53818200184522
METEOR-M2 3             
1 57166U 23091A   26197.25729741 -.00000016  00000+0  11984-4 0  9996
2 57166  98.6068 251.6384 0005141  87.8941 272.2827 14.24048983158659
TIANMU-1 07             
1 57399U 23101A   26197.26983720  .00003151  00000+0  11066-3 0  9998
2 57399  97.2575 247.2735 0003687  62.5982 297.5634 15.30122102166091
TIANMU-1 08             
1 57400U 23101B   26197.23640145  .00003284  00000+0  11518-3 0  9998
2 57400  97.2564 247.0073 0004512  43.5853 316.5744 15.30126128166084
TIANMU-1 09             
1 57401U 23101C   26197.28453024  .00003118  00000+0  10936-3 0  9991
2 57401  97.2521 246.4554 0004297  62.5483 297.6195 15.30167221166094
TIANMU-1 10             
1 57402U 23101D   26197.31809087  .00003264  00000+0  11443-3 0  9996
2 57402  97.2602 247.5684 0005568  51.2666 308.9072 15.30140977166090
FENGYUN 3F              
1 57490U 23111A   26197.28772917  .00000017  00000+0  28504-4 0  9991
2 57490  98.6824 266.7524 0001250  76.1256 284.0060 14.19943519152993
ARKTIKA-M 2             
1 58584U 23198A   26196.17500106  .00000129  00000+0  00000+0 0  9997
2 58584  63.2178 151.2342 6910736 267.3397  18.7345  2.00608092 18886
TIANMU-1 11             
1 58645U 23205A   26197.34272947  .00002563  00000+0  98627-4 0  9994
2 58645  97.3440 218.4465 0006821 256.9670 103.0807 15.27269685141971
TIANMU-1 12             
1 58646U 23205B   26197.31525586  .00002918  00000+0  11249-3 0  9990
2 58646  97.3429 218.1659 0005884 229.4862 130.5865 15.27102005141956
TIANMU-1 13             
1 58647U 23205C   26197.28317708  .00002737  00000+0  10572-3 0  9999
2 58647  97.3457 218.4147 0005909 207.8966 152.1957 15.27094059141946
TIANMU-1 14             
1 58648U 23205D   26197.33306336  .00002654  00000+0  10246-3 0  9997
2 58648  97.3393 217.6229 0006532 215.4217 144.6589 15.27138107141956
TIANMU-1 19             
1 58660U 23208A   26197.29135214  .00004197  00000+0  13847-3 0  9998
2 58660  97.4531 313.7515 0004696 194.2900 165.8209 15.31984968141787
